[{"OBJECT_NAME":"STARLINK-33895","OBJECT_ID":"2025-098J","EPOCH":"2026-03-09T21:14:20.500800","MEAN_MOTION":14.98333798,"ECCENTRICITY":0.00029266,"INCLINATION":70.0002,"RA_OF_ASC_NODE":273.8849,"ARG_OF_PERICENTER":256.1693,"MEAN_ANOMALY":103.914,"EPHEMERIS_TYPE":0,"CLASSIFICATION_TYPE":"U","NORAD_CAT_ID":63934,"ELEMENT_SET_NO":999,"REV_AT_EPOCH":4660,"BSTAR":0.00025674868,"MEAN_MOTION_DOT":2.972e-5,"MEAN_MOTION_DDOT":0},{"OBJECT_NAME":"CZ-6A DEB","OBJECT_ID":"2024-140YJ","EPOCH":"2026-03-09T12:57:52.080768","MEAN_MOTION":14.93904112,"ECCENTRICITY":0.01017322,"INCLINATION":88.9655,"RA_OF_ASC_NODE":277.0683,"ARG_OF_PERICENTER":120.9079,"MEAN_ANOMALY":240.2204,"EPHEMERIS_TYPE":0,"CLASSIFICATION_TYPE":"U","NORAD_CAT_ID":61417,"ELEMENT_SET_NO":999,"REV_AT_EPOCH":8080,"BSTAR":0.0018816098,"MEAN_MOTION_DOT":0.00022222,"MEAN_MOTION_DDOT":0}]
